{"type": "FeatureCollection", "features": [ {"type": "Feature", "properties": {"norad_id": 66440, "name": "STARLINK-35405", "group": "last-30-days", "lat": -16.17883508087057, "lon": 46.43865367976513, "alt_km": 437.63084810078635, "timestamp": "2025-12-09T18:55:16.021358+00:00", "meta": {"OBJECT_NAME": "STARLINK-35405", "OBJECT_ID": "2025-259U", "EPOCH": "2025-12-09T16:00:01.999584", "MEAN_MOTION": 15.43724762, "ECCENTRICITY": 0.00016457, "INCLINATION": 43.0005, "RA_OF_ASC_NODE": 65.2829, "ARG_OF_PERICENTER": 283.8865, "MEAN_ANOMALY": 95.0832, "EPHEMERIS_TYPE": 0, "CLASSIFICATION_TYPE": "U", "NORAD_CAT_ID": 66440, "ELEMENT_SET_NO": 999, "REV_AT_EPOCH": 578, "BSTAR": -0.047284371, "MEAN_MOTION_DOT": -0.01954229, "MEAN_MOTION_DDOT": 0}, "tle": {"line1": "1 66440U 25259U   25343.66668981 -.01954229  00000+0 -47284-1 0  9999", "line2": "2 66440  43.0005  65.2829 0001645 283.8865  95.0832 15.43724762  5780"}}, "geometry": {"type": "Point", "coordinates": [46.43865367976513, -16.17883508087057]}}, {"type": "Feature", "properties": {"norad_id": 66441, "name": "STARLINK-35426", "group": "last-30-days", "lat": 1.4056560515098335, "lon": 66.01979452910399, "alt_km": 418.51625948449146, "timestamp": "2025-12-09T18:55:16.021368+00:00", "meta": {"OBJECT_NAME": "STARLINK-35426", "OBJECT_ID": "2025-259V", "EPOCH": "2025-12-09T12:43:52.511232", "MEAN_MOTION": 15.51236843, "ECCENTRICITY": 0.00176609, "INCLINATION": 42.9997, "RA_OF_ASC_NODE": 66.0214, "ARG_OF_PERICENTER": 239.7081, "MEAN_ANOMALY": 120.2032, "EPHEMERIS_TYPE": 0, "CLASSIFICATION_TYPE": "U", "NORAD_CAT_ID": 66441, "ELEMENT_SET_NO": 999, "REV_AT_EPOCH": 567, "BSTAR": 0.0030181859, "MEAN_MOTION_DOT": 0.0018636, "MEAN_MOTION_DDOT": 0}, "tle": {"line1": "1 66441U 25259V   25343.53046888  .00186360  00000+0  30182-2 0  9992", "line2": "2 66441  42.9997  66.0214 0017660 239.7081 120.2032 15.51236843  5678"}}, "geometry": {"type": "Point", "coordinates": [66.01979452910399, 1.4056560515098335]}}, {"type": "Feature", "properties": {"norad_id": 66442, "name": "STARLINK-34724", "group": "last-30-days", "lat": 1.0363315786424045, "lon": 65.62623495285614, "alt_km": 411.2076689967207, "timestamp": "2025-12-09T18:55:16.021378+00:00", "meta": {"OBJECT_NAME": "STARLINK-34724", "OBJECT_ID": "2025-259W", "EPOCH": "2025-12-09T12:43:54.176160", "MEAN_MOTION": 15.50769922, "ECCENTRICITY": 0.00085157, "INCLINATION": 43.0007, "RA_OF_ASC_NODE": 66.0233, "ARG_OF_PERICENTER": 297.0016, "MEAN_ANOMALY": 62.9974, "EPHEMERIS_TYPE": 0, "CLASSIFICATION_TYPE": "U", "NORAD_CAT_ID": 66442, "ELEMENT_SET_NO": 999, "REV_AT_EPOCH": 567, "BSTAR": 0.003098413, "MEAN_MOTION_DOT": 0.00187316, "MEAN_MOTION_DDOT": 0}, "tle": {"line1": "1 66442U 25259W   25343.53048815  .00187316  00000+0  30984-2 0  9997", "line2": "2 66442  43.0007  66.0233 0008515 297.0016  62.9974 15.50769922  5673"}}, "geometry": {"type": "Point", "coordinates": [65.62623495285614, 1.0363315786424045]}}, {"type": "Feature", "properties": {"norad_id": 66443, "name": "STARLINK-35219", "group": "last-30-days", "lat": 2.5443071462460707, "lon": 67.24048653148883, "alt_km": 413.63031856854195, "timestamp": "2025-12-09T18:55:16.021391+00:00", "meta": {"OBJECT_NAME": "STARLINK-35219", "OBJECT_ID": "2025-259X", "EPOCH": "2025-12-08T22:48:33.716736", "MEAN_MOTION": 15.50624735, "ECCENTRICITY": 9.6e-05, "INCLINATION": 43, "RA_OF_ASC_NODE": 69.411, "ARG_OF_PERICENTER": 286.7645, "MEAN_ANOMALY": 73.311, "EPHEMERIS_TYPE": 0, "CLASSIFICATION_TYPE": "U", "NORAD_CAT_ID": 66443, "ELEMENT_SET_NO": 999, "REV_AT_EPOCH": 547, "BSTAR": 0.0017406, "MEAN_MOTION_DOT": 0.00103295, "MEAN_MOTION_DDOT": 0}, "tle": {"line1": "1 66443U 25259X   25342.95039024  .00103295  00000+0  17406-2 0  9993", "line2": "2 66443  43.0000  69.4110 0000960 286.7645  73.3110 15.50624735  5475"}}, "geometry": {"type": "Point", "coordinates": [67.24048653148883, 2.5443071462460707]}}, {"type": "Feature", "properties": {"norad_id": 66444, "name": "STARLINK-35360", "group": "last-30-days", "lat": 6.249219980894032, "lon": 71.24176362870682, "alt_km": 413.8461960391214, "timestamp": "2025-12-09T18:55:16.021401+00:00", "meta": {"OBJECT_NAME": "STARLINK-35360", "OBJECT_ID": "2025-259Y", "EPOCH": "2025-12-09T14:14:38.915808", "MEAN_MOTION": 15.50671448, "ECCENTRICITY": 0.00030078, "INCLINATION": 43.0004, "RA_OF_ASC_NODE": 65.6336, "ARG_OF_PERICENTER": 269.9974, "MEAN_ANOMALY": 90.0542, "EPHEMERIS_TYPE": 0, "CLASSIFICATION_TYPE": "U", "NORAD_CAT_ID": 66444, "ELEMENT_SET_NO": 999, "REV_AT_EPOCH": 568, "BSTAR": 0.0018101312, "MEAN_MOTION_DOT": 0.00107686, "MEAN_MOTION_DDOT": 0}, "tle": {"line1": "1 66444U 25259Y   25343.59350597  .00107686  00000+0  18101-2 0  9997", "line2": "2 66444  43.0004  65.6336 0003007 269.9974  90.0542 15.50671448  5682"}}, "geometry": {"type": "Point", "coordinates": [71.24176362870682, 6.249219980894032]}}, {"type": "Feature", "properties": {"norad_id": 66445, "name": "STARLINK-34698", "group": "last-30-days", "lat": 2.7202344471325377, "lon": 67.42983110125707, "alt_km": 416.78940443309693, "timestamp": "2025-12-09T18:55:16.021411+00:00", "meta": {"OBJECT_NAME": "STARLINK-34698", "OBJECT_ID": "2025-259Z", "EPOCH": "2025-12-09T14:15:47.190816", "MEAN_MOTION": 15.49563038, "ECCENTRICITY": 0.00023486, "INCLINATION": 42.9965, "RA_OF_ASC_NODE": 65.6407, "ARG_OF_PERICENTER": 291.8258, "MEAN_ANOMALY": 68.2352, "EPHEMERIS_TYPE": 0, "CLASSIFICATION_TYPE": "U", "NORAD_CAT_ID": 66445, "ELEMENT_SET_NO": 999, "REV_AT_EPOCH": 557, "BSTAR": 0.0016507138, "MEAN_MOTION_DOT": 0.00094212, "MEAN_MOTION_DDOT": 0}, "tle": {"line1": "1 66445U 25259Z   25343.59429619  .00094212  00000+0  16507-2 0  9998", "line2": "2 66445  42.9965  65.6407 0002348 291.8258  68.2352 15.49563038  5579"}}, "geometry": {"type": "Point", "coordinates": [67.42983110125707, 2.7202344471325377]}}, {"type": "Feature", "properties": {"norad_id": 66446, "name": "STARLINK-34986", "group": "last-30-days", "lat": 4.952468063253379, "lon": 69.83349014495825, "alt_km": 413.9390652807024, "timestamp": "2025-12-09T18:55:16.021421+00:00", "meta": {"OBJECT_NAME": "STARLINK-34986", "OBJECT_ID": "2025-259AA", "EPOCH": "2025-12-09T14:15:08.033472", "MEAN_MOTION": 15.5062385, "ECCENTRICITY": 0.00027105, "INCLINATION": 42.9993, "RA_OF_ASC_NODE": 65.636, "ARG_OF_PERICENTER": 273.1662, "MEAN_ANOMALY": 86.8888, "EPHEMERIS_TYPE": 0, "CLASSIFICATION_TYPE": "U", "NORAD_CAT_ID": 66446, "ELEMENT_SET_NO": 999, "REV_AT_EPOCH": 568, "BSTAR": 0.0023987465, "MEAN_MOTION_DOT": 0.00143221, "MEAN_MOTION_DDOT": 0}, "tle": {"line1": "1 66446U 25259AA  25343.59384298  .00143221  00000+0  23987-2 0  9997", "line2": "2 66446  42.9993  65.6360 0002710 273.1662  86.8888 15.50623850  5687"}}, "geometry": {"type": "Point", "coordinates": [69.83349014495825, 4.952468063253379]}}, {"type": "Feature", "properties": {"norad_id": 66447, "name": "STARLINK-34851", "group": "last-30-days", "lat": 7.560229219370832, "lon": 72.6768605885091, "alt_km": 413.6959405847556, "timestamp": "2025-12-09T18:55:16.021431+00:00", "meta": {"OBJECT_NAME": "STARLINK-34851", "OBJECT_ID": "2025-259AB", "EPOCH": "2025-12-09T12:41:24.098496", "MEAN_MOTION": 15.5066298, "ECCENTRICITY": 0.00015853, "INCLINATION": 43.0003, "RA_OF_ASC_NODE": 66.0078, "ARG_OF_PERICENTER": 255.9268, "MEAN_ANOMALY": 104.1416, "EPHEMERIS_TYPE": 0, "CLASSIFICATION_TYPE": "U", "NORAD_CAT_ID": 66447, "ELEMENT_SET_NO": 999, "REV_AT_EPOCH": 556, "BSTAR": 0.0028157194, "MEAN_MOTION_DOT": 0.00168962, "MEAN_MOTION_DDOT": 0}, "tle": {"line1": "1 66447U 25259AB  25343.52875114  .00168962  00000+0  28157-2 0  9996", "line2": "2 66447  43.0003  66.0078 0001585 255.9268 104.1416 15.50662980  5567"}}, "geometry": {"type": "Point", "coordinates": [72.6768605885091, 7.560229219370832]}}, {"type": "Feature", "properties": {"norad_id": 66448, "name": "STARLINK-35355", "group": "last-30-days", "lat": 8.777535305327413, "lon": 74.02190874888579, "alt_km": 413.5634208814063, "timestamp": "2025-12-09T18:55:16.021441+00:00", "meta": {"OBJECT_NAME": "STARLINK-35355", "OBJECT_ID": "2025-259AC", "EPOCH": "2025-12-09T14:13:40.010880", "MEAN_MOTION": 15.50575554, "ECCENTRICITY": 0.00014579, "INCLINATION": 42.9997, "RA_OF_ASC_NODE": 65.6281, "ARG_OF_PERICENTER": 275.8092, "MEAN_ANOMALY": 84.2602, "EPHEMERIS_TYPE": 0, "CLASSIFICATION_TYPE": "U", "NORAD_CAT_ID": 66448, "ELEMENT_SET_NO": 999, "REV_AT_EPOCH": 568, "BSTAR": 0.0020890783, "MEAN_MOTION_DOT": 0.00124162, "MEAN_MOTION_DDOT": 0}, "tle": {"line1": "1 66448U 25259AC  25343.59282420  .00124162  00000+0  20891-2 0  9997", "line2": "2 66448  42.9997  65.6281 0001457 275.8092  84.2602 15.50575554  5681"}}, "geometry": {"type": "Point", "coordinates": [74.02190874888579, 8.777535305327413]}}, {"type": "Feature", "properties": {"norad_id": 66449, "name": "STARLINK-34720", "group": "last-30-days", "lat": 10.07053868201231, "lon": 75.46642142822387, "alt_km": 413.47444248711054, "timestamp": "2025-12-09T18:55:16.021454+00:00", "meta": {"OBJECT_NAME": "STARLINK-34720", "OBJECT_ID": "2025-259AD", "EPOCH": "2025-12-09T14:13:10.266816", "MEAN_MOTION": 15.5058504, "ECCENTRICITY": 0.00014664, "INCLINATION": 42.9996, "RA_OF_ASC_NODE": 65.6255, "ARG_OF_PERICENTER": 272.035, "MEAN_ANOMALY": 88.0342, "EPHEMERIS_TYPE": 0, "CLASSIFICATION_TYPE": "U", "NORAD_CAT_ID": 66449, "ELEMENT_SET_NO": 999, "REV_AT_EPOCH": 557, "BSTAR": 0.0016251214, "MEAN_MOTION_DOT": 0.00096197, "MEAN_MOTION_DDOT": 0}, "tle": {"line1": "1 66449U 25259AD  25343.59247994  .00096197  00000+0  16251-2 0  9996", "line2": "2 66449  42.9996  65.6255 0001466 272.0350  88.0342 15.50585040  5570"}}, "geometry": {"type": "Point", "coordinates": [75.46642142822387, 10.07053868201231]}}]}